[{"OBJECT_NAME":"KUIPER-00167","OBJECT_ID":"2025-217U","EPOCH":"2026-03-09T07:25:05.974752","MEAN_MOTION":14.79947692,"ECCENTRICITY":8.121e-5,"INCLINATION":51.8966,"RA_OF_ASC_NODE":47.2417,"ARG_OF_PERICENTER":75.791,"MEAN_ANOMALY":284.3142,"EPHEMERIS_TYPE":0,"CLASSIFICATION_TYPE":"U","NORAD_CAT_ID":65780,"ELEMENT_SET_NO":999,"REV_AT_EPOCH":2478,"BSTAR":-2.5142666e-5,"MEAN_MOTION_DOT":-4.13e-6,"MEAN_MOTION_DDOT":0},{"OBJECT_NAME":"SL-14 R\/B","OBJECT_ID":"1991-039B","EPOCH":"2026-03-09T15:48:43.025184","MEAN_MOTION":14.81841975,"ECCENTRICITY":0.00211429,"INCLINATION":82.523,"RA_OF_ASC_NODE":136.5072,"ARG_OF_PERICENTER":162.3905,"MEAN_ANOMALY":197.8047,"EPHEMERIS_TYPE":0,"CLASSIFICATION_TYPE":"U","NORAD_CAT_ID":21398,"ELEMENT_SET_NO":999,"REV_AT_EPOCH":85439,"BSTAR":6.0636888e-5,"MEAN_MOTION_DOT":5.04e-6,"MEAN_MOTION_DDOT":0}]
